[{"OBJECT_NAME":"GAOFEN-12 04","OBJECT_ID":"2023-123A","EPOCH":"2026-03-09T23:07:49.236384","MEAN_MOTION":14.80004662,"ECCENTRICITY":0.00016529,"INCLINATION":97.9129,"RA_OF_ASC_NODE":348.4218,"ARG_OF_PERICENTER":75.8828,"MEAN_ANOMALY":284.2567,"EPHEMERIS_TYPE":0,"CLASSIFICATION_TYPE":"U","NORAD_CAT_ID":57654,"ELEMENT_SET_NO":999,"REV_AT_EPOCH":13795,"BSTAR":0.00022872409,"MEAN_MOTION_DOT":1.679e-5,"MEAN_MOTION_DDOT":0},{"OBJECT_NAME":"FENGYUN 1C DEB","OBJECT_ID":"1999-025DQF","EPOCH":"2026-03-09T11:13:08.013504","MEAN_MOTION":14.90370931,"ECCENTRICITY":0.01269339,"INCLINATION":98.9808,"RA_OF_ASC_NODE":67.5909,"ARG_OF_PERICENTER":49.019,"MEAN_ANOMALY":312.1923,"EPHEMERIS_TYPE":0,"CLASSIFICATION_TYPE":"U","NORAD_CAT_ID":35223,"ELEMENT_SET_NO":999,"REV_AT_EPOCH":95173,"BSTAR":0.00097388848,"MEAN_MOTION_DOT":0.00010982,"MEAN_MOTION_DDOT":0}]
